HXMT (HUIYAN)           
1 42758U 17034A   26062.19516277  .00006179  00000+0  31154-3 0  9994
2 42758  43.0150  52.7764 0032200 196.0768 163.9061 15.17359352481556
SAOCOM 1A               
1 43641U 18076A   26062.14448299  .00000802  00000+0  10734-3 0  9994
2 43641  97.8883 250.4092 0001288  83.4564 276.6796 14.82160770400399
H-2A R/B                
1 43682U 18084L   26062.17535149  .00022663  00000+0  54467-3 0  9992
2 43682  98.8737 278.1728 0025823  47.3900 312.9514 15.41011607404778
SAOCOM 1B               
1 46265U 20059A   26062.17570694  .00000179  00000+0  29067-4 0  9998
2 46265  97.8883 249.5379 0001464  80.0148 280.1230 14.82163480297789
CSS (TIANHE)            
1 48274U 21035A   26061.80363536  .00017409  00000+0  21017-3 0  9999
2 48274  41.4651 250.0496 0006616 230.1207 129.9050 15.60315912276530
COSMOS 2550             
1 48865U 21056A   26062.38781846 -.00000188  00000+0  11206-6 0  9999
2 48865  67.1420  59.9939 0008336 269.4093  90.6106 15.33841181262490
CZ-2C R/B               
1 52794U 22058K   26062.01768679  .00033548  00000+0  50063-3 0  9993
2 52794  50.1903 352.5961 0042160 172.3927 187.7692 15.53662801209099
CZ-2C R/B               
1 54039U 22132E   26061.96327803  .00045591  00000+0  53360-3 0  9997
2 54039  97.2954  65.0792 0020766 112.6179 247.7278 15.61162408189320
GSLV R/B                
1 54149U 22138AN  26061.83456019  .00004713  00000+0  40842-3 0  9995
2 54149  87.3885 168.6561 0021989 170.5085 189.6567 14.96713300182908
XRISM                   
1 57800U 23137A   26062.10273933  .00007313  00000+0  41646-3 0  9997
2 57800  31.0033 326.2655 0008204 332.0919  27.9278 15.11407310136796
ACS3                    
1 59588U 24077B   26061.80074936  .00018685  00000+0  15165-1 0  9993
2 59588  97.2115   4.4612 0054690  95.3082 265.4325 13.89236949 93249
SZ-21 MODULE            
1 66515U 25246C   26061.55898934  .00039531  00000+0  34908-3 0  9995
2 66515  41.4734 247.2373 0001469 286.7563  73.3117 15.67907744 16956
