[{"OBJECT_NAME":"HXMT (HUIYAN)","OBJECT_ID":"2017-034A","EPOCH":"2026-03-03T04:41:02.063328","MEAN_MOTION":15.17359352,"ECCENTRICITY":0.00322,"INCLINATION":43.015,"RA_OF_ASC_NODE":52.7764,"ARG_OF_PERICENTER":196.0768,"MEAN_ANOMALY":163.9061,"EPHEMERIS_TYPE":0,"CLASSIFICATION_TYPE":"U","NORAD_CAT_ID":42758,"ELEMENT_SET_NO":999,"REV_AT_EPOCH":48155,"BSTAR":0.00031154,"MEAN_MOTION_DOT":6.179e-5,"MEAN_MOTION_DDOT":0},{"OBJECT_NAME":"SAOCOM 1A","OBJECT_ID":"2018-076A","EPOCH":"2026-03-03T03:28:03.330336","MEAN_MOTION":14.8216077,"ECCENTRICITY":0.0001288,"INCLINATION":97.8883,"RA_OF_ASC_NODE":250.4092,"ARG_OF_PERICENTER":83.4564,"MEAN_ANOMALY":276.6796,"EPHEMERIS_TYPE":0,"CLASSIFICATION_TYPE":"U","NORAD_CAT_ID":43641,"ELEMENT_SET_NO":999,"REV_AT_EPOCH":40039,"BSTAR":0.00010734,"MEAN_MOTION_DOT":8.02e-6,"MEAN_MOTION_DDOT":0},{"OBJECT_NAME":"H-2A R/B","OBJECT_ID":"2018-084L","EPOCH":"2026-03-03T04:12:30.368736","MEAN_MOTION":15.41011607,"ECCENTRICITY":0.0025823,"INCLINATION":98.8737,"RA_OF_ASC_NODE":278.1728,"ARG_OF_PERICENTER":47.39,"MEAN_ANOMALY":312.9514,"EPHEMERIS_TYPE":0,"CLASSIFICATION_TYPE":"U","NORAD_CAT_ID":43682,"ELEMENT_SET_NO":999,"REV_AT_EPOCH":40477,"BSTAR":0.00054467,"MEAN_MOTION_DOT":0.00022663,"MEAN_MOTION_DDOT":0},{"OBJECT_NAME":"SAOCOM 1B","OBJECT_ID":"2020-059A","EPOCH":"2026-03-03T04:13:01.079616","MEAN_MOTION":14.8216348,"ECCENTRICITY":0.0001464,"INCLINATION":97.8883,"RA_OF_ASC_NODE":249.5379,"ARG_OF_PERICENTER":80.0148,"MEAN_ANOMALY":280.123,"EPHEMERIS_TYPE":0,"CLASSIFICATION_TYPE":"U","NORAD_CAT_ID":46265,"ELEMENT_SET_NO":999,"REV_AT_EPOCH":29778,"BSTAR":2.9067e-5,"MEAN_MOTION_DOT":1.79e-6,"MEAN_MOTION_DDOT":0},{"OBJECT_NAME":"CSS (TIANHE)","OBJECT_ID":"2021-035A","EPOCH":"2026-03-02T19:17:14.095104","MEAN_MOTION":15.60315912,"ECCENTRICITY":0.00066169,"INCLINATION":41.4651,"RA_OF_ASC_NODE":250.0496,"ARG_OF_PERICENTER":230.1207,"MEAN_ANOMALY":129.905,"EPHEMERIS_TYPE":0,"CLASSIFICATION_TYPE":"U","NORAD_CAT_ID":48274,"ELEMENT_SET_NO":999,"REV_AT_EPOCH":27653,"BSTAR":0.00021016754,"MEAN_MOTION_DOT":0.00017409,"MEAN_MOTION_DDOT":0},{"OBJECT_NAME":"COSMOS 2550","OBJECT_ID":"2021-056A","EPOCH":"2026-03-03T09:18:27.514944","MEAN_MOTION":15.33841181,"ECCENTRICITY":0.0008336,"INCLINATION":67.142,"RA_OF_ASC_NODE":59.9939,"ARG_OF_PERICENTER":269.4093,"MEAN_ANOMALY":90.6106,"EPHEMERIS_TYPE":0,"CLASSIFICATION_TYPE":"U","NORAD_CAT_ID":48865,"ELEMENT_SET_NO":999,"REV_AT_EPOCH":26249,"BSTAR":1.1206e-7,"MEAN_MOTION_DOT":-1.88e-6,"MEAN_MOTION_DDOT":0},{"OBJECT_NAME":"CZ-2C R/B","OBJECT_ID":"2022-058K","EPOCH":"2026-03-03T00:25:28.138656","MEAN_MOTION":15.53662801,"ECCENTRICITY":0.004216,"INCLINATION":50.1903,"RA_OF_ASC_NODE":352.5961,"ARG_OF_PERICENTER":172.3927,"MEAN_ANOMALY":187.7692,"EPHEMERIS_TYPE":0,"CLASSIFICATION_TYPE":"U","NORAD_CAT_ID":52794,"ELEMENT_SET_NO":999,"REV_AT_EPOCH":20909,"BSTAR":0.00050063,"MEAN_MOTION_DOT":0.00033548,"MEAN_MOTION_DDOT":0},{"OBJECT_NAME":"CZ-2C R/B","OBJECT_ID":"2022-132E","EPOCH":"2026-03-02T23:07:07.221792","MEAN_MOTION":15.61162408,"ECCENTRICITY":0.0020766,"INCLINATION":97.2954,"RA_OF_ASC_NODE":65.0792,"ARG_OF_PERICENTER":112.6179,"MEAN_ANOMALY":247.7278,"EPHEMERIS_TYPE":0,"CLASSIFICATION_TYPE":"U","NORAD_CAT_ID":54039,"ELEMENT_SET_NO":999,"REV_AT_EPOCH":18932,"BSTAR":0.0005336,"MEAN_MOTION_DOT":0.00045591,"MEAN_MOTION_DDOT":0},{"OBJECT_NAME":"GSLV R/B","OBJECT_ID":"2022-138AN","EPOCH":"2026-03-02T20:01:46.000416","MEAN_MOTION":14.967133,"ECCENTRICITY":0.0021989,"INCLINATION":87.3885,"RA_OF_ASC_NODE":168.6561,"ARG_OF_PERICENTER":170.5085,"MEAN_ANOMALY":189.6567,"EPHEMERIS_TYPE":0,"CLASSIFICATION_TYPE":"U","NORAD_CAT_ID":54149,"ELEMENT_SET_NO":999,"REV_AT_EPOCH":18290,"BSTAR":0.00040842,"MEAN_MOTION_DOT":4.713e-5,"MEAN_MOTION_DDOT":0},{"OBJECT_NAME":"XRISM","OBJECT_ID":"2023-137A","EPOCH":"2026-03-03T02:27:56.678112","MEAN_MOTION":15.1140731,"ECCENTRICITY":0.0008204,"INCLINATION":31.0033,"RA_OF_ASC_NODE":326.2655,"ARG_OF_PERICENTER":332.0919,"MEAN_ANOMALY":27.9278,"EPHEMERIS_TYPE":0,"CLASSIFICATION_TYPE":"U","NORAD_CAT_ID":57800,"ELEMENT_SET_NO":999,"REV_AT_EPOCH":13679,"BSTAR":0.00041646,"MEAN_MOTION_DOT":7.313e-5,"MEAN_MOTION_DDOT":0},{"OBJECT_NAME":"ACS3","OBJECT_ID":"2024-077B","EPOCH":"2026-03-02T19:13:04.744704","MEAN_MOTION":13.89236949,"ECCENTRICITY":0.005469,"INCLINATION":97.2115,"RA_OF_ASC_NODE":4.4612,"ARG_OF_PERICENTER":95.3082,"MEAN_ANOMALY":265.4325,"EPHEMERIS_TYPE":0,"CLASSIFICATION_TYPE":"U","NORAD_CAT_ID":59588,"ELEMENT_SET_NO":999,"REV_AT_EPOCH":9324,"BSTAR":0.015165,"MEAN_MOTION_DOT":0.00018685,"MEAN_MOTION_DDOT":0},{"OBJECT_NAME":"SZ-21 MODULE","OBJECT_ID":"2025-246C","EPOCH":"2026-03-02T13:24:56.678976","MEAN_MOTION":15.67907744,"ECCENTRICITY":0.0001469,"INCLINATION":41.4734,"RA_OF_ASC_NODE":247.2373,"ARG_OF_PERICENTER":286.7563,"MEAN_ANOMALY":73.3117,"EPHEMERIS_TYPE":0,"CLASSIFICATION_TYPE":"U","NORAD_CAT_ID":66515,"ELEMENT_SET_NO":999,"REV_AT_EPOCH":1695,"BSTAR":0.00034908,"MEAN_MOTION_DOT":0.00039531,"MEAN_MOTION_DDOT":0}]
